ONEWEB-0228             
1 48780U 21045P   23254.56473201  .00000233  00000+0  58554-3 0  9990
2 48780  87.8945 100.2235 0001806  87.0519 273.0818 13.15551397111583
